ONEWEB-0156             
1 48052U 21025L   26129.03905005 -.00000285  00000+0 -81652-3 0  9992
2 48052  87.8959 328.0153 0001624  91.5458 268.5857 13.13471403248433
ONEWEB-0161             
1 48053U 21025M   26129.08983484  .00000214  00000+0  55078-3 0  9998
2 48053  87.8950 328.0096 0001601  91.4072 268.7240 13.13470823248373
ONEWEB-0158             
1 48054U 21025N   26129.04919699 -.00003907  00000+0 -10735-1 0  9995
2 48054  87.8956 328.0132 0002037  75.2903 284.8451 13.13491324248493
ONEWEB-0157             
1 48055U 21025P   26129.07459110  .00000292  00000+0  76353-3 0  9998
2 48055  87.8956 328.0131 0001389  91.1116 269.0173 13.13471846248432
ONEWEB-0162             
1 48056U 21025Q   26129.05075789 -.00000255  00000+0 -73251-3 0  9998
2 48056  87.8952 328.0206 0001798  92.8222 267.3113 13.13472143248405
ONEWEB-0155             
1 48057U 21025R   26129.05766610  .00000047  00000+0  93969-4 0  9995
2 48057  87.8951 328.0152 0001595  84.5738 275.5573 13.13471917248544
ONEWEB-0149             
1 48058U 21025S   26129.07968686  .00000320  00000+0  83995-3 0  9996
2 48058  87.8959 328.0124 0001811  94.8196 265.3140 13.13470836248350
ONEWEB-0148             
1 48059U 21025T   26129.11860679 -.00000254  00000+0 -73044-3 0  9997
2 48059  87.8951 328.0145 0001772 107.2883 252.8440 13.13471486248484
ONEWEB-0160             
1 48060U 21025U   26129.05937360  .00000062  00000+0  13454-3 0  9998
2 48060  87.8950 328.0224 0002475  81.7058 278.4351 13.13471426248427
ONEWEB-0163             
1 48061U 21025V   26129.12028881 -.00000275  00000+0 -78742-3 0  9995
2 48061  87.8950 328.0036 0001466  88.5860 271.5437 13.13471513248554
ONEWEB-0159             
1 48062U 21025W   26129.11182940 -.00000226  00000+0 -65254-3 0  9992
2 48062  87.8960 327.9965 0001485  87.1726 272.9573 13.13473324248471
ONEWEB-0164             
1 48063U 21025X   26129.09322294  .00000207  00000+0  53209-3 0  9992
2 48063  87.8960 328.0069 0001801  85.7452 274.3883 13.13470638248454
ONEWEB-0167             
1 48064U 21025Y   26129.04497998 -.00000262  00000+0 -75278-3 0  9995
2 48064  87.8948 328.0299 0001369  67.6197 292.5077 13.13470472248431
ONEWEB-0166             
1 48065U 21025Z   26129.06782649  .00000269  00000+0  70298-3 0  9990
2 48065  87.8959 327.9929 0001711  94.6034 265.5290 13.13470108248515
ONEWEB-0151             
1 48066U 21025AA  26129.06951784  .00000270  00000+0  70560-3 0  9993
2 48066  87.8947 328.0136 0001693  83.5789 276.5533 13.13470979248459
ONEWEB-0170             
1 48067U 21025AB  26129.07798896  .00000378  00000+0  10003-2 0  9992
2 48067  87.8947 328.0136 0001990  75.6455 284.4895 13.13471697248415
ONEWEB-0168             
1 48068U 21025AC  26129.06274839  .00000898  00000+0  24245-2 0  9998
2 48068  87.8957 328.0129 0001634  96.5101 263.6214 13.13468298248422
ONEWEB-0173             
1 48069U 21025AD  26129.05428257 -.00000038  00000+0 -13771-3 0  9994
2 48069  87.8951 328.0187 0001358  84.0942 276.0342 13.13471661248663
ONEWEB-0171             
1 48070U 21025AE  26129.09151938  .00000193  00000+0  49226-3 0  9993
2 48070  87.8949 328.0205 0001737  84.4417 275.6910 13.13471090248487
ONEWEB-0172             
1 48071U 21025AF  26129.07120574  .00000318  00000+0  83664-3 0  9997
2 48071  87.8951 328.0122 0001616  83.8830 276.2484 13.13470851249373
ONEWEB-0174             
1 48072U 21025AG  26129.05258171 -.00000098  00000+0 -30353-3 0  9995
2 48072  87.8946 328.0165 0001714  93.1833 266.9492 13.13471921248699
ONEWEB-0175             
1 48073U 21025AH  26129.08306197  .00000336  00000+0  88509-3 0  9990
2 48073  87.8959 327.9920 0001751  76.2656 283.8668 13.13470706248353
ONEWEB-0177             
1 48074U 21025AJ  26129.09489866  .00000118  00000+0  28766-3 0  9994
2 48074  87.8954 328.0096 0001554  92.3118 267.8189 13.13467590248546
ONEWEB-0178             
1 48075U 21025AK  26129.11367718 -.00000230  00000+0 -66464-3 0  9993
2 48075  87.8939 328.0238 0001576  80.3018 279.8289 13.13470481248590
ONEWEB-0108             
1 48076U 21025AL  26129.07291274  .00000257  00000+0  66868-3 0  9997
2 48076  87.8960 328.0037 0001947  91.9424 268.1928 13.13471080248512
ONEWEB-0169             
1 48077U 21025AM  26129.10507670 -.00000141  00000+0 -41998-3 0  9993
2 48077  87.8950 328.0087 0001711  91.4727 268.6598 13.13471315247177
ONEWEB-0176             
1 48210U 21031A   26128.97831657  .00000177  00000+0  44359-3 0  9999
2 48210  87.8927 297.5223 0001678  92.2749 267.8573 13.14504184243168
ONEWEB-0184             
1 48211U 21031B   26128.95136575 -.00000104  00000+0 -31460-3 0  9996
2 48211  87.8942 297.5244 0001528  65.4777 294.6512 13.14503663243135
ONEWEB-0179             
1 48212U 21031C   26129.16668980  .00191875  00000+0  83043-1 0  9997
2 48212  87.8960 296.3623 0176482  24.1812 233.4474 14.15055188  5419
ONEWEB-0180             
1 48213U 21031D   26129.03066291 -.00000191  00000+0 -55057-3 0  9999
2 48213  87.8931 297.5071 0001304  97.4089 262.7189 13.14503753243075
ONEWEB-0218             
1 48214U 21031E   26128.97673737  .00000111  00000+0  26388-3 0  9996
2 48214  87.8931 297.5169 0001222  66.6886 293.4372 13.14504096243229
ONEWEB-0209             
1 48215U 21031F   26129.19400697 -.00000211  00000+0 -60487-3 0  9996
2 48215  87.8918 297.4946 0001593  99.5810 260.5499 13.14502190243251
ONEWEB-0198             
1 48216U 21031G   26129.02603720 -.00000122  00000+0 -36445-3 0  9999
2 48216  87.8921 297.5285 0001314  91.3296 268.7985 13.14503391243346
ONEWEB-0189             
1 48217U 21031H   26129.19082543 -.00000199  00000+0 -57247-3 0  9999
2 48217  87.8932 297.4775 0001427  91.7030 268.4263 13.14502838243102
ONEWEB-0196             
1 48218U 21031J   26129.01637544 -.00000008  00000+0 -54930-4 0  9994
2 48218  87.8933 297.5220 0001580  96.0628 264.0682 13.14504205243085
ONEWEB-0183             
1 48219U 21031K   26128.99100816  .00000259  00000+0  66451-3 0  9994
2 48219  87.8927 297.5260 0001846 100.4793 259.6544 13.14504107243179
ONEWEB-0185             
1 48220U 21031L   26129.01717803 -.00000003  00000+0 -42886-4 0  9996
2 48220  87.8942 297.5108 0001658 108.9392 251.1917 13.14503669243104
ONEWEB-0187             
1 48221U 21031M   26128.99722580  .00000237  00000+0  60520-3 0  9992
2 48221  87.8917 297.5370 0001561 100.5471 259.5835 13.14503538243114
ONEWEB-0192             
1 48222U 21031N   26129.19558883 -.00000274  00000+0 -77236-3 0  9994
2 48222  87.8919 297.4862 0001697  92.2324 267.9000 13.14502789243053
ONEWEB-0219             
1 48223U 21031P   26129.02272593 -.00000166  00000+0 -48300-3 0  9998
2 48223  87.8928 297.5116 0001605 101.5880 258.5430 13.14501865243234
ONEWEB-0202             
1 48224U 21031Q   26129.00368222  .00000191  00000+0  48188-3 0  9992
2 48224  87.8934 297.5259 0001262  77.8308 282.2963 13.14501073243213
ONEWEB-0204             
1 48225U 21031R   26128.96166734 -.00000167  00000+0 -48407-3 0  9990
2 48225  87.8930 297.5289 0001902 103.2333 256.9009 13.14504199243105
ONEWEB-0205             
1 48226U 21031S   26128.93708773 -.00000032  00000+0 -12212-3 0  9999
2 48226  87.8936 297.5255 0001647  99.9641 260.1675 13.14503764243118
ONEWEB-0206             
1 48227U 21031T   26128.98625203  .00000281  00000+0  72405-3 0  9995
2 48227  87.8934 297.5184 0001929  92.3834 267.7517 13.14501227243077
ONEWEB-0182             
1 48228U 21031U   26128.98149602  .00000218  00000+0  55336-3 0  9994
2 48228  87.8928 297.5282 0001880 100.9951 259.1390 13.14504064243281
ONEWEB-0186             
1 48229U 21031V   26128.99259642  .00000290  00000+0  74785-3 0  9991
2 48229  87.8935 297.5143 0001656  96.5126 263.6192 13.14504273243238
ONEWEB-0181             
1 48230U 21031W   26128.97040683 -.00000014  00000+0 -72244-4 0  9999
2 48230  87.8918 297.5541 0001536  94.4419 265.6886 13.14503218243085
ONEWEB-0188             
1 48231U 21031X   26129.00847470  .00000098  00000+0  23079-3 0  9995
2 48231  87.8923 297.5448 0001740  96.8973 263.2354 13.14502525242999
ONEWEB-0220             
1 48232U 21031Y   26128.97196551  .00000000  00000+0 -35159-4 0  9995
2 48232  87.8936 297.5195 0001637 101.6322 258.4992 13.14504639243253
ONEWEB-0165             
1 48233U 21031Z   26129.00051799  .00000229  00000+0  58294-3 0  9991
2 48233  87.8931 297.5291 0001427  91.0274 269.1019 13.14504373243211
ONEWEB-0199             
1 48234U 21031AA  26128.98465999  .00000286  00000+0  73604-3 0  9994
2 48234  87.8935 297.5159 0001926  93.6090 266.5260 13.14504496243111
ONEWEB-0203             
1 48235U 21031AB  26128.97515075  .00000061  00000+0  13022-3 0  9994
2 48235  87.8938 297.5207 0001765  89.1401 270.9931 13.14504106243129
ONEWEB-0197             
1 48236U 21031AC  26129.02575058 -.00000129  00000+0 -38239-3 0  9993
2 48236  87.8926 297.5012 0001959 102.8989 257.2360 13.14504358243044
ONEWEB-0194             
1 48237U 21031AD  26129.00528383  .00000137  00000+0  33390-3 0  9991
2 48237  87.8934 297.5253 0001911  90.0685 270.0664 13.14503454243215
ONEWEB-0193             
1 48238U 21031AE  26129.02114198  .00001072  00000+0  28570-2 0  9991
2 48238  87.8932 297.5127 0001890  92.8724 267.2622 13.14497396243167
ONEWEB-0191             
1 48239U 21031AF  26129.03223910 -.00000157  00000+0 -45679-3 0  9991
2 48239  87.8933 297.5075 0001872  99.6039 260.5302 13.14504524243023
ONEWEB-0195             
1 48240U 21031AG  26129.00925859  .00000091  00000+0  21179-3 0  9995
2 48240  87.8942 297.5115 0001375  93.8306 266.2981 13.14504011243006
ONEWEB-0201             
1 48241U 21031AH  26128.99748400  .00000278  00000+0  71629-3 0  9990
2 48241  87.8921 297.5348 0001703 108.4916 251.6398 13.14504170243238
ONEWEB-0207             
1 48242U 21031AJ  26128.97752972  .00000132  00000+0  32141-3 0  9993
2 48242  87.8939 297.5202 0001749 104.2034 255.9290 13.14504118243142
